ONEWEB-0597             
1 54663U 22166X   26012.73145116  .00000012  00000+0 -34584-5 0  9992
2 54663  87.9219 275.0023 0001746  76.4910 283.6418 13.21825217151007
ONEWEB-0600             
1 54664U 22166Y   26012.71334976 -.00000048  00000+0 -14749-3 0  9994
2 54664  87.9219 274.9969 0001687  71.1139 289.0178 13.21824867150972
ONEWEB-0601             
1 54665U 22166Z   26012.78081807 -.00000068  00000+0 -19592-3 0  9997
2 54665  87.9220 275.0013 0001895  76.0830 284.0514 13.21825173151173
ONEWEB-0602             
1 54666U 22166AA  26012.74544034  .00000047  00000+0  81632-4 0  9990
2 54666  87.9221 275.0129 0001711  65.3857 294.7455 13.21826846151013
ONEWEB-0603             
1 54667U 22166AB  26012.75119433  .00000022  00000+0  21944-4 0  9996
2 54667  87.9232 274.9530 0001757  74.6309 285.5019 13.21827245150944
ONEWEB-0604             
1 54668U 22166AC  26012.73968188  .00000037  00000+0  58482-4 0  9997
2 54668  87.9221 274.9726 0001569  74.5142 285.6165 13.21827101150905
ONEWEB-0605             
1 54669U 22166AD  26012.73308263 -.00000333  00000+0 -83768-3 0  9995
2 54669  87.9218 275.0011 0002096  85.4063 274.7310 13.21824534150975
ONEWEB-0606             
1 54670U 22166AE  26012.75448528  .00000014  00000+0  28658-5 0  9991
2 54670  87.9223 275.0089 0001426  78.1473 281.9821 13.21825500151037
